OBJECT_NAME,OBJECT_ID,EPOCH,MEAN_MOTION,ECCENTRICITY,INCLINATION,RA_OF_ASC_NODE,ARG_OF_PERICENTER,MEAN_ANOMALY,EPHEMERIS_TYPE,CLASSIFICATION_TYPE,NORAD_CAT_ID,ELEMENT_SET_NO,REV_AT_EPOCH,BSTAR,MEAN_MOTION_DOT,MEAN_MOTION_DDOT
ASNARO-2,2018-007A,2026-06-30T12:41:22.011936,15.22422602,.00015921,97.3968,188.2474,90.3975,269.7444,0,U,43152,999,46944,.10621086E-3,.2385E-4,0
JILIN-1 07,2018-008E,2026-06-30T12:33:43.602048,15.34940851,.00085444,97.1761,201.0973,23.8647,336.2991,0,U,43159,999,46704,.26577221E-3,.8941E-4,0
JILIN-1 08,2018-008F,2026-06-30T12:47:07.014048,15.33859879,.00071034,97.1795,200.4084,42.4473,317.7318,0,U,43160,999,46699,.19048554E-3,.6166E-4,0
S-NET D,2018-014G,2026-06-30T06:15:22.034880,15.16792040,.00074834,97.5357,85.9700,346.4920,13.6111,0,U,43186,999,46074,.23687773E-3,.4588E-4,0
S-NET B,2018-014H,2026-06-30T06:32:13.705440,15.16762091,.00079514,97.5361,85.9687,340.4008,19.6919,0,U,43187,999,46074,.25209509E-3,.4883E-4,0
S-NET A,2018-014J,2026-06-30T06:13:38.830080,15.16800640,.0007842,97.5371,86.1673,341.5085,18.5862,0,U,43188,999,46074,.23785361E-3,.4608E-4,0
S-NET C,2018-014K,2026-06-30T12:57:54.290880,15.16756955,.00089214,97.5387,86.5229,330.4902,29.5826,0,U,43189,999,45933,.26704799E-3,.5177E-4,0
PAZ,2018-020A,2026-06-30T13:03:33.960384,15.19149353,.0001729,97.4449,188.7398,87.9159,272.2273,0,U,43215,999,46303,.9078742E-4,.184E-4,0
GOES 17,2018-022A,2026-06-30T03:23:03.894720,1.00272160,.00007332,0.9685,85.5045,30.2079,123.7662,0,U,43226,999,3055,0,-.173E-5,0
LKW-4,2018-025A,2026-06-30T12:37:11.121888,15.63335898,.00025981,97.6342,353.4543,231.6334,128.4690,0,U,43236,999,46211,.45997718E-3,.42277E-3,0
ZHUHAI-1 OVS-02,2018-040B,2026-06-30T13:12:58.763232,15.25199015,.00033746,97.0378,197.9883,174.7662,185.3613,0,U,43440,999,45475,.28566658E-3,.7106E-4,0
ZHUHAI-1 OHS-02,2018-040C,2026-06-30T14:15:03.911328,15.26071098,.00097498,97.0360,204.9819,170.7726,189.3695,0,U,43441,999,11632,.28443132E-3,.7272E-4,0
GAOFEN-6,2018-048A,2026-06-30T13:22:23.344896,14.76367962,.00118058,98.0970,244.2240,122.8551,237.3797,0,U,43484,999,43536,.81960889E-4,.517E-5,0
LUOJIA-1 01,2018-048B,2026-06-30T13:29:47.128128,14.87332174,.00104144,97.8106,259.5351,79.6481,280.5909,0,U,43485,999,43620,.2250554E-3,.1979E-4,0
PAKTES 1A,2018-056A,2026-06-30T13:18:08.328384,14.99150748,.00208626,98.1278,338.6105,64.7013,295.6368,0,U,43529,999,43392,.19114273E-3,.2269E-4,0
PRSS-1,2018-056B,2026-06-30T13:24:04.400928,14.82011132,.00014626,97.7821,249.0579,77.2989,282.8387,0,U,43530,999,43041,.19262232E-3,.1477E-4,0
HAIYANG-1C,2018-068A,2026-06-30T13:41:20.870016,14.34183700,.00119707,98.5194,253.6849,58.6257,301.6098,0,U,43609,999,40900,.14626183E-3,.367E-5,0
SSTL S1-4,2018-071A,2026-06-30T14:20:48.535872,14.96186712,.00022483,97.5017,52.6533,105.2831,254.8639,0,U,43618,999,42494,.12560541E-3,.1361E-4,0
HAIYANG-2B,2018-081A,2026-06-30T13:59:02.606784,13.79307835,.00002108,99.3279,190.1365,169.2746,190.8411,0,U,43655,999,38677,-.12057766E-3,-.168E-5,0
CFOSAT,2018-083A,2026-06-30T13:19:29.036352,15.16455499,.0002258,97.3603,185.6921,82.0323,278.1166,0,U,43662,999,42446,.18840368E-3,.36E-4,0
TEN-KOH,2018-084G,2026-06-30T12:07:59.888064,15.02983709,.00108038,98.0739,14.4300,75.6366,284.6056,0,U,43677,999,41816,.12415701E-3,.1605E-4,0
DIWATA-2B,2018-084H,2026-06-30T13:46:22.698048,15.00509099,.00131135,98.1200,18.3663,128.6702,231.5696,0,U,43678,999,41822,.16142167E-3,.1972E-4,0
STARS-AO,2018-084J,2026-06-29T12:56:32.231616,15.17184998,.00035371,98.0486,35.2722,111.8437,248.3171,0,U,43679,999,41934,.30179989E-3,.5921E-4,0
AUTCUBE 2,2018-084K,2026-06-29T19:40:41.081088,15.10172460,.00090315,98.0694,27.6642,10.7512,349.3908,0,U,43681,999,41883,.18663384E-3,.2977E-4,0
METOP-C,2018-087A,2026-06-30T13:58:40.440000,14.21515657,.00021156,98.6639,240.9408,112.5861,247.5540,0,U,43689,999,39673,.7106164E-4,.112E-5,0
ES'HAIL 2,2018-090A,2026-06-30T07:21:13.895712,1.00272145,.00022292,0.0187,24.8803,108.3216,281.2639,0,U,43700,999,2780,0,.155E-5,0
MOHAMMED VI-B,2018-095A,2026-06-30T12:31:39.313920,14.77065865,.00015909,97.9560,253.6636,97.2834,262.8557,0,U,43717,999,41015,.12967194E-3,.864E-5,0
HYSIS,2018-096A,2026-06-30T13:01:28.061760,14.78643494,.00018532,97.9840,248.1857,89.7308,270.4116,0,U,43719,999,40939,.18031568E-3,.1269E-4,0
COSMOS 2530 (RODNIK-S 16),2018-097A,2026-06-30T13:52:44.791680,12.42881657,.00196178,82.5125,213.9700,11.0880,349.0628,0,U,43751,999,34395,.27477394E-3,.48E-6,0
