ASNARO-2                
1 43152U 18007A   26181.52872699  .00002385  00000+0  10621-3 0  9997
2 43152  97.3968 188.2474 0001592  90.3975 269.7444 15.22422602469442
JILIN-1 07              
1 43159U 18008E   26181.52342132  .00008941  00000+0  26577-3 0  9990
2 43159  97.1761 201.0973 0008544  23.8647 336.2991 15.34940851467042
JILIN-1 08              
1 43160U 18008F   26181.53272007  .00006166  00000+0  19049-3 0  9999
2 43160  97.1795 200.4084 0007103  42.4473 317.7318 15.33859879466999
S-NET D                 
1 43186U 18014G   26181.26067170  .00004588  00000+0  23688-3 0  9997
2 43186  97.5357  85.9700 0007483 346.4920  13.6111 15.16792040460748
S-NET B                 
1 43187U 18014H   26181.27238085  .00004883  00000+0  25210-3 0  9995
2 43187  97.5361  85.9687 0007951 340.4008  19.6919 15.16762091460744
S-NET A                 
1 43188U 18014J   26181.25947720  .00004608  00000+0  23785-3 0  9997
2 43188  97.5371  86.1673 0007842 341.5085  18.5862 15.16800640460748
S-NET C                 
1 43189U 18014K   26181.54021170  .00005177  00000+0  26705-3 0  9999
2 43189  97.5387  86.5229 0008921 330.4902  29.5826 15.16756955459335
PAZ                     
1 43215U 18020A   26181.54414306  .00001840  00000+0  90787-4 0  9998
2 43215  97.4449 188.7398 0001729  87.9159 272.2273 15.19149353463038
GOES 17                 
1 43226U 18022A   26181.14101730 -.00000173  00000+0  00000+0 0  9995
2 43226   0.9685  85.5045 0000733  30.2079 123.7662  1.00272160 30557
LKW-4                   
1 43236U 18025A   26181.52582317  .00042277  00000+0  45998-3 0  9994
2 43236  97.6342 353.4543 0002598 231.6334 128.4690 15.63335898462119
ZHUHAI-1 OVS-02         
1 43440U 18040B   26181.55068013  .00007106  00000+0  28567-3 0  9998
2 43440  97.0378 197.9883 0003374 174.7662 185.3613 15.25199015454756
ZHUHAI-1 OHS-02         
1 43441U 18040C   26181.59379527  .00007272  00000+0  28443-3 0  9995
2 43441  97.0360 204.9819 0009749 170.7726 189.3695 15.26071098116328
GAOFEN-6                
1 43484U 18048A   26181.55721464  .00000517  00000+0  81961-4 0  9997
2 43484  98.0970 244.2240 0011805 122.8551 237.3797 14.76367962435365
LUOJIA-1 01             
1 43485U 18048B   26181.56235102  .00001979  00000+0  22506-3 0  9990
2 43485  97.8106 259.5351 0010414  79.6481 280.5909 14.87332174436200
PAKTES 1A               
1 43529U 18056A   26181.55426306  .00002269  00000+0  19114-3 0  9999
2 43529  98.1278 338.6105 0020862  64.7013 295.6368 14.99150748433923
PRSS-1                  
1 43530U 18056B   26181.55838427  .00001477  00000+0  19262-3 0  9996
2 43530  97.7821 249.0579 0001462  77.2989 282.8387 14.82011132430415
HAIYANG-1C              
1 43609U 18068A   26181.57038044  .00000367  00000+0  14626-3 0  9991
2 43609  98.5194 253.6849 0011970  58.6257 301.6098 14.34183700409009
SSTL S1-4               
1 43618U 18071A   26181.59778398  .00001361  00000+0  12561-3 0  9991
2 43618  97.5017  52.6533 0002248 105.2831 254.8639 14.96186712424948
HAIYANG-2B              
1 43655U 18081A   26181.58266906 -.00000168  00000+0 -12058-3 0  9996
2 43655  99.3279 190.1365 0000210 169.2746 190.8411 13.79307835386778
CFOSAT                  
1 43662U 18083A   26181.55519718  .00003600  00000+0  18840-3 0  9992
2 43662  97.3603 185.6921 0002258  82.0323 278.1166 15.16455499424468
TEN-KOH                 
1 43677U 18084G   26181.50555426  .00001605  00000+0  12416-3 0  9996
2 43677  98.0739  14.4300 0010803  75.6366 284.6056 15.02983709418167
DIWATA-2B               
1 43678U 18084H   26181.57387382  .00001972  00000+0  16142-3 0  9995
2 43678  98.1200  18.3663 0013113 128.6702 231.5696 15.00509099418229
STARS-AO                
1 43679U 18084J   26180.53926194  .00005921  00000+0  30180-3 0  9997
2 43679  98.0486  35.2722 0003537 111.8437 248.3171 15.17184998419340
AUTCUBE 2               
1 43681U 18084K   26180.81991992  .00002977  00000+0  18663-3 0  9999
2 43681  98.0694  27.6642 0009031  10.7512 349.3908 15.10172460418833
METOP-C                 
1 43689U 18087A   26181.58241250  .00000112  00000+0  71062-4 0  9992
2 43689  98.6639 240.9408 0002115 112.5861 247.5540 14.21515657396735
ES'HAIL 2               
1 43700U 18090A   26181.30641083  .00000155  00000+0  00000+0 0  9994
2 43700   0.0187  24.8803 0002229 108.3216 281.2639  1.00272145 27803
MOHAMMED VI-B           
1 43717U 18095A   26181.52198280  .00000864  00000+0  12967-3 0  9993
2 43717  97.9560 253.6636 0001590  97.2834 262.8557 14.77065865410154
HYSIS                   
1 43719U 18096A   26181.54268590  .00001269  00000+0  18032-3 0  9999
2 43719  97.9840 248.1857 0001853  89.7308 270.4116 14.78643494409396
COSMOS 2530 (RODNIK-S *)
1 43751U 18097A   26181.57829620  .00000048  00000+0  27477-3 0  9993
2 43751  82.5125 213.9700 0019617  11.0880 349.0628 12.42881657343959
